{
"type": "FeatureCollection",
"name": "landmarksfinally",
"crs": { "type": "name", "properties": { "name": "urn:ogc:def:crs:OGC:1.3:CRS84" } },
"features": [
{ "type": "Feature", "properties": { "fid": 1, "Id": null, "Name": "UPHC park", "Changes": null, "Ward_no": 4.0, "park_jawan": "P.Ravi" }, "geometry": { "type": "Point", "coordinates": [ 80.161464155940351, 17.264384745799973 ] } },
{ "type": "Feature", "properties": { "fid": 2, "Id": null, "Name": "Khanapuram tankbund", "Changes": null, "Ward_no": 6.0, "park_jawan": "P.Ravi" }, "geometry": { "type": "Point", "coordinates": [ 80.176156829451088, 17.267707760701104 ] } },
{ "type": "Feature", "properties": { "fid": 3, "Id": null, "Name": "prashanthi nagar walk way  park", "Changes": null, "Ward_no": 6.0, "park_jawan": "P.Ravi" }, "geometry": { "type": "Point", "coordinates": [ 80.164685897360727, 17.258007987270371 ] } },
{ "type": "Feature", "properties": { "fid": 4, "Id": null, "Name": "uph colony walkway", "Changes": null, "Ward_no": 5.0, "park_jawan": "P.Ravi" }, "geometry": { "type": "Point", "coordinates": [ 80.164390391608535, 17.258287593971357 ] } },
{ "type": "Feature", "properties": { "fid": 5, "Id": null, "Name": "nsp canal rastogi nagar walk way park", "Changes": null, "Ward_no": 6.0, "park_jawan": "P.Ravi" }, "geometry": { "type": "Point", "coordinates": [ 80.164421079902567, 17.257591780033597 ] } },
{ "type": "Feature", "properties": { "fid": 6, "Id": null, "Name": "rastogi nagar walkway", "Changes": null, "Ward_no": 55.0, "park_jawan": "P.Ravi" }, "geometry": { "type": "Point", "coordinates": [ 80.163832080645705, 17.258004673235018 ] } },
{ "type": "Feature", "properties": { "fid": 7, "Id": null, "Name": "rotary nagar park", "Changes": null, "Ward_no": 9.0, "park_jawan": "Vamshi" }, "geometry": { "type": "Point", "coordinates": [ 80.172190869588192, 17.246129760800496 ] } },
{ "type": "Feature", "properties": { "fid": 8, "Id": null, "Name": "Kmc park", "Changes": null, "Ward_no": 10.0, "park_jawan": "Vamshi" }, "geometry": { "type": "Point", "coordinates": [ 80.167150895477988, 17.248919197958941 ] } },
{ "type": "Feature", "properties": { "fid": 9, "Id": null, "Name": "chaithanya nagar park", "Changes": null, "Ward_no": 10.0, "park_jawan": "Vamshi" }, "geometry": { "type": "Point", "coordinates": [ 80.168081125423555, 17.249731042018876 ] } },
{ "type": "Feature", "properties": { "fid": 10, "Id": null, "Name": "Radha krishna park", "Changes": null, "Ward_no": 12.0, "park_jawan": "V.Saidulu" }, "geometry": { "type": "Point", "coordinates": [ 80.168561243611677, 17.245798492508481 ] } },
{ "type": "Feature", "properties": { "fid": 11, "Id": null, "Name": "Pet park", "Changes": null, "Ward_no": 12.0, "park_jawan": "V.Saidulu" }, "geometry": { "type": "Point", "coordinates": [ 80.16153220514289, 17.242324112502171 ] } },
{ "type": "Feature", "properties": { "fid": 12, "Id": null, "Name": "Lakaram park", "Changes": null, "Ward_no": 21.0, "park_jawan": "Vijay" }, "geometry": { "type": "Point", "coordinates": [ 80.158666561204825, 17.242690375692753 ] } },
{ "type": "Feature", "properties": { "fid": 13, "Id": null, "Name": "Lakaram walkway", "Changes": null, "Ward_no": 41.0, "park_jawan": "Vijay" }, "geometry": { "type": "Point", "coordinates": [ 80.156852619098544, 17.249928700388555 ] } },
{ "type": "Feature", "properties": { "fid": 14, "Id": null, "Name": "Gollagudem Park", "Changes": null, "Ward_no": 14.0, "park_jawan": "Nageshwar Rao" }, "geometry": { "type": "Point", "coordinates": [ 80.174196724836619, 17.2348667384306 ] } },
{ "type": "Feature", "properties": { "fid": 15, "Id": null, "Name": "Ramachandra nagar park", "Changes": null, "Ward_no": 20.0, "park_jawan": "V.Saidulu" }, "geometry": { "type": "Point", "coordinates": [ 80.158509919031559, 17.232628819357966 ] } },
{ "type": "Feature", "properties": { "fid": 16, "Id": null, "Name": "LIC,Cheruvu bazar park", "Changes": null, "Ward_no": 21.0, "park_jawan": "V.Saidulu" }, "geometry": { "type": "Point", "coordinates": [ 80.150981273523172, 17.24066706319373 ] } },
{ "type": "Feature", "properties": { "fid": 17, "Id": null, "Name": "pakabanda park", "Changes": null, "Ward_no": 23.0, "park_jawan": "V.Saidulu" }, "geometry": { "type": "Point", "coordinates": [ 80.144369776686844, 17.236758428543798 ] } },
{ "type": "Feature", "properties": { "fid": 18, "Id": null, "Name": "Gandhi park", "Changes": null, "Ward_no": 25.0, "park_jawan": "V.Saidulu" }, "geometry": { "type": "Point", "coordinates": [ 80.142254376184013, 17.240664790295689 ] } },
{ "type": "Feature", "properties": { "fid": 19, "Id": 3, "Name": "Kollu kottaiah  park", "Changes": null, "Ward_no": 17.0, "park_jawan": "Balu" }, "geometry": { "type": "Point", "coordinates": [ 80.13703719900991, 17.229272951294387 ] } },
{ "type": "Feature", "properties": { "fid": 20, "Id": 2, "Name": "Ramaraju Vidyasagar rao park", "Changes": null, "Ward_no": 28.0, "park_jawan": "Balu" }, "geometry": { "type": "Point", "coordinates": [ 80.133108775078412, 17.232654444189599 ] } },
{ "type": "Feature", "properties": { "fid": 21, "Id": 4, "Name": "Prof Jayashankar park", "Changes": null, "Ward_no": 29.0, "park_jawan": "Balu" }, "geometry": { "type": "Point", "coordinates": [ 80.13267813267781, 17.233215674699643 ] } },
{ "type": "Feature", "properties": { "fid": 22, "Id": null, "Name": "Sundari Nagar Park", "Changes": null, "Ward_no": 31.0, "park_jawan": "Balu" }, "geometry": { "type": "Point", "coordinates": [ 80.130561239030172, 17.237556802099743 ] } },
{ "type": "Feature", "properties": { "fid": 23, "Id": null, "Name": "Manchikanti Ramakrishna Rao Park", "Changes": null, "Ward_no": 31.0, "park_jawan": "Balu" }, "geometry": { "type": "Point", "coordinates": [ 80.132377129699449, 17.241255902014768 ] } },
{ "type": "Feature", "properties": { "fid": 24, "Id": null, "Name": "Kaloji Narayana Rao", "Changes": null, "Ward_no": 33.0, "park_jawan": "Balu" }, "geometry": { "type": "Point", "coordinates": [ 80.132332792190383, 17.241979070057148 ] } },
{ "type": "Feature", "properties": { "fid": 25, "Id": null, "Name": "Vanajeevi Ramaiah park", "Changes": null, "Ward_no": 30.0, "park_jawan": "Balu" }, "geometry": { "type": "Point", "coordinates": [ 80.128020216984282, 17.242849726306144 ] } },
{ "type": "Feature", "properties": { "fid": 26, "Id": null, "Name": "Konda laxmi bapuji", "Changes": null, "Ward_no": 34.0, "park_jawan": "Shami" }, "geometry": { "type": "Point", "coordinates": [ 80.129761252416813, 17.24504010799285 ] } },
{ "type": "Feature", "properties": { "fid": 27, "Id": null, "Name": "Ashoka Park", "Changes": null, "Ward_no": 35.0, "park_jawan": "Shami" }, "geometry": { "type": "Point", "coordinates": [ 80.136147602525924, 17.245806691303891 ] } },
{ "type": "Feature", "properties": { "fid": 28, "Id": null, "Name": "KMC gandhi chowk park", "Changes": null, "Ward_no": 36.0, "park_jawan": "Shami" }, "geometry": { "type": "Point", "coordinates": [ 80.138576298640444, 17.247984529492047 ] } },
{ "type": "Feature", "properties": { "fid": 29, "Id": null, "Name": "Rajab Ali Park", "Changes": null, "Ward_no": 46.0, "park_jawan": "Shami" }, "geometry": { "type": "Point", "coordinates": [ 80.133630337012377, 17.252361408959892 ] } },
{ "type": "Feature", "properties": { "fid": 30, "Id": null, "Name": "Old Kmc office park", "Changes": null, "Ward_no": 37.0, "park_jawan": "V.Saidulu" }, "geometry": { "type": "Point", "coordinates": [ 80.142877356246288, 17.249101712089139 ] } },
{ "type": "Feature", "properties": { "fid": 31, "Id": null, "Name": "Jammibanda park", "Changes": null, "Ward_no": 41.0, "park_jawan": "V.Saidulu" }, "geometry": { "type": "Point", "coordinates": [ 80.153721544208594, 17.244972356558286 ] } },
{ "type": "Feature", "properties": { "fid": 32, "Id": null, "Name": "Mekala Banda", "Changes": null, "Ward_no": 43.0, "park_jawan": "B.venkateshwarlu" }, "geometry": { "type": "Point", "coordinates": [ 80.150032628865773, 17.251320254557196 ] } },
{ "type": "Feature", "properties": { "fid": 33, "Id": 1, "Name": "PV narasimha rao park", "Changes": null, "Ward_no": 50.0, "park_jawan": "B.venkateshwarlu" }, "geometry": { "type": "Point", "coordinates": [ 80.141888772786615, 17.26226610128613 ] } },
{ "type": "Feature", "properties": { "fid": 34, "Id": null, "Name": "FReedom Park", "Changes": null, "Ward_no": 53.0, "park_jawan": "B.venkateshwarlu" }, "geometry": { "type": "Point", "coordinates": [ 80.15231679246763, 17.257622877530359 ] } },
{ "type": "Feature", "properties": { "fid": 35, "Id": null, "Name": "NTR Park", "Changes": null, "Ward_no": 54.0, "park_jawan": "B.venkateshwarlu" }, "geometry": { "type": "Point", "coordinates": [ 80.157412336949733, 17.25309669593814 ] } },
{ "type": "Feature", "properties": { "fid": 36, "Id": 0, "Name": null, "Changes": null, "Ward_no": null, "park_jawan": null }, "geometry": null },
{ "type": "Feature", "properties": { "fid": 37, "Id": 0, "Name": null, "Changes": null, "Ward_no": null, "park_jawan": null }, "geometry": null },
{ "type": "Feature", "properties": { "fid": 38, "Id": 0, "Name": null, "Changes": null, "Ward_no": null, "park_jawan": null }, "geometry": null },
{ "type": "Feature", "properties": { "fid": 39, "Id": 0, "Name": null, "Changes": null, "Ward_no": null, "park_jawan": null }, "geometry": null }
]
}
